[{"OBJECT_NAME":"STARLINK-3107","OBJECT_ID":"2021-082AT","EPOCH":"2026-03-09T21:59:27.140640","MEAN_MOTION":15.10504087,"ECCENTRICITY":0.00073375,"INCLINATION":69.9932,"RA_OF_ASC_NODE":287.3824,"ARG_OF_PERICENTER":250.2407,"MEAN_ANOMALY":109.7967,"EPHEMERIS_TYPE":0,"CLASSIFICATION_TYPE":"U","NORAD_CAT_ID":49171,"ELEMENT_SET_NO":999,"REV_AT_EPOCH":24733,"BSTAR":0.001517345,"MEAN_MOTION_DOT":0.00025048,"MEAN_MOTION_DDOT":0},{"OBJECT_NAME":"STARLINK-4212","OBJECT_ID":"2022-062S","EPOCH":"2026-03-09T22:10:36.205824","MEAN_MOTION":15.08832535,"ECCENTRICITY":0.0001384,"INCLINATION":53.2187,"RA_OF_ASC_NODE":33.0746,"ARG_OF_PERICENTER":98.1738,"MEAN_ANOMALY":261.9411,"EPHEMERIS_TYPE":0,"CLASSIFICATION_TYPE":"U","NORAD_CAT_ID":52846,"ELEMENT_SET_NO":999,"REV_AT_EPOCH":20582,"BSTAR":-2.2788343e-5,"MEAN_MOTION_DOT":-6.5e-6,"MEAN_MOTION_DDOT":0}]
